NORAD_CAT_ID,OBJECT_NAME,OBJECT_TYPE,EPOCH,MEAN_MOTION,ECCENTRICITY,INCLINATION,RA_OF_ASC_NODE,ARG_OF_PERICENTER,MEAN_ANOMALY,BSTAR,MEAN_MOTION_DOT,MEAN_MOTION_DDOT,TLE_LINE0,TLE_LINE1,TLE_LINE2,SEMIMAJOR_AXIS,PERIOD,APOGEE,PERIGEE,DECAYED
55742.0,STARLINK-5594,PAYLOAD,2023-09-28 11:42:38,14.98322818,0.0002894,70.001,336.6841,252.4192,107.6651,5.7573e-05,5.94e-06,0.0,0 STARLINK-5594,1 55742U 23028B   23271.48794111  .00000594  00000-0  57573-4 0  9997,2 55742  70.0010 336.6841 0002894 252.4192 107.6651 14.98322818 32245,6950.215,96.107,574.091,570.069,0.0
55742.0,STARLINK-5594,PAYLOAD,2023-09-28 14:54:54,14.98322227,0.0002905,70.0007,336.3472,254.4959,105.5879,3.4344e-05,3.17e-06,0.0,0 STARLINK-5594,1 55742U 23028B   23271.62146219  .00000317  00000-0  34344-4 0  9997,2 55742  70.0007 336.3472 0002905 254.4959 105.5879 14.98322227 32269,6950.217,96.107,574.101,570.063,0.0
55742.0,STARLINK-5594,PAYLOAD,2023-09-29 13:20:46,14.98333036,0.0003103,70.0,333.9885,264.2486,95.832,-4.7018e-05,-6.54e-06,0.0,0 STARLINK-5594,1 55742U 23028B   23272.55609664 -.00000654  00000-0 -47018-4 0  9996,2 55742  70.0000 333.9885 0003103 264.2486  95.8320 14.98333036 32406,6950.184,96.107,574.205,569.892,0.0
55742.0,STARLINK-5594,PAYLOAD,2023-09-30 05:22:06,14.98332639,0.0003138,69.9996,332.3046,264.3848,95.6954,9.2285e-05,1.008e-05,0.0,0 STARLINK-5594,1 55742U 23028B   23273.22369147  .00001008  00000-0  92285-4 0  9998,2 55742  69.9996 332.3046 0003138 264.3848  95.6954 14.98332639 32500,6950.185,96.107,574.231,569.869,0.0
55742.0,STARLINK-5594,PAYLOAD,2023-09-30 13:22:47,14.98334572,0.0003119,69.9996,331.463,264.6335,95.4468,0.00010698,1.184e-05,0.0,0 STARLINK-5594,1 55742U 23028B   23273.55748918  .00001184  00000-0  10698-3 0  9993,2 55742  69.9996 331.4630 0003119 264.6335  95.4468 14.98334572 32553,6950.179,96.107,574.212,569.876,0.0
55742.0,STARLINK-5594,PAYLOAD,2023-09-30 21:23:27,14.98329482,0.000313,69.9997,330.6212,269.9774,90.1026,3.2593e-05,2.96e-06,0.0,0 STARLINK-5594,1 55742U 23028B   23273.89129423  .00000296  00000-0  32593-4 0  9996,2 55742  69.9997 330.6212 0003130 269.9774  90.1026 14.98329482 32601,6950.194,96.107,574.235,569.884,0.0
55742.0,STARLINK-5594,PAYLOAD,2023-10-01 06:59:44,14.98726294,0.0005455,70.0012,329.6133,265.7556,94.298,0.0044997,0.00054584,0.0,0 STARLINK-5594,1 55742U 23028B   23274.29149150  .00054584  00000-0  44997-2 0  9998,2 55742  70.0012 329.6133 0005455 265.7556  94.2980 14.98726294 32668,6948.968,96.082,574.623,567.042,0.0
55742.0,STARLINK-5594,PAYLOAD,2023-10-02 06:00:00,14.98344261,0.0003496,70.0003,327.1945,270.5108,216.3719,-0.0022707,-0.00027093,0.0,0 STARLINK-5594,1 55742U 23028B   23275.25001157 -.00027093  00000-0 -22707-2 0  9991,2 55742  70.0003 327.1945 0003496 270.5108 216.3719 14.98344261 32805,6950.149,96.106,574.444,569.584,0.0
55742.0,STARLINK-5594,PAYLOAD,2023-10-02 15:02:57,14.98330486,0.0003238,69.9985,326.2436,269.1552,90.9236,5.4519e-05,5.58e-06,0.0,0 STARLINK-5594,1 55742U 23028B   23275.62705279  .00000558  00000-0  54519-4 0  9991,2 55742  69.9985 326.2436 0003238 269.1552  90.9236 14.98330486 32867,6950.191,96.107,574.307,569.806,0.0
55742.0,STARLINK-5594,PAYLOAD,2023-10-03 11:52:41,14.98340033,0.0003334,69.9985,324.0557,271.7796,88.2981,7.3185e-05,7.8e-06,0.0,0 STARLINK-5594,1 55742U 23028B   23276.49492511  .00000780  00000-0  73185-4 0  9996,2 55742  69.9985 324.0557 0003334 271.7796  88.2981 14.98340033 32993,6950.162,96.106,574.344,569.71,0.0
55742.0,STARLINK-5594,PAYLOAD,2023-10-03 13:28:49,14.98341012,0.0003335,69.9985,323.8874,271.7741,88.3036,8.3445e-05,9.03e-06,0.0,0 STARLINK-5594,1 55742U 23028B   23276.56168386  .00000903  00000-0  83445-4 0  9991,2 55742  69.9985 323.8874 0003335 271.7741  88.3036 14.98341012 33006,6950.159,96.106,574.342,569.706,0.0
55742.0,STARLINK-5594,PAYLOAD,2023-10-04 10:18:34,14.98335673,0.0002723,69.9987,321.6994,268.221,91.8637,-6.7844e-05,-9.02e-06,0.0,0 STARLINK-5594,1 55742U 23028B   23277.42957131 -.00000902  00000-0 -67844-4 0  9997,2 55742  69.9987 321.6994 0002723 268.2210  91.8637 14.98335673 33135,6950.175,96.107,573.933,570.148,0.0
55742.0,STARLINK-5594,PAYLOAD,2023-10-04 13:30:51,14.98329103,0.000317,69.9986,321.3623,272.578,87.5016,0.0001185,1.321e-05,0.0,0 STARLINK-5594,1 55742U 23028B   23277.56309053  .00001321  00000-0  11850-3 0  9995,2 55742  69.9986 321.3623 0003170 272.5780  87.5016 14.98329103 33153,6950.196,96.107,574.264,569.857,0.0
55742.0,STARLINK-5594,PAYLOAD,2023-10-04 19:55:23,14.98330156,0.0003371,69.9981,320.6889,272.9236,87.1537,3.8233e-05,3.63e-06,0.0,0 STARLINK-5594,1 55742U 23028B   23277.83013152  .00000363  00000-0  38233-4 0  9997,2 55742  69.9981 320.6889 0003371 272.9236  87.1537 14.98330156 33195,6950.192,96.107,574.4,569.714,0.0
55742.0,STARLINK-5594,PAYLOAD,2023-10-05 10:20:35,14.98331917,0.0003038,69.999,319.1739,270.4451,89.636,-1.6072e-05,-2.85e-06,0.0,0 STARLINK-5594,1 55742U 23028B   23278.43097198 -.00000285  00000-0 -16072-4 0  9998,2 55742  69.9990 319.1739 0003038 270.4451  89.6360 14.98331917 33281,6950.187,96.107,574.163,569.94,0.0
55742.0,STARLINK-5594,PAYLOAD,2023-10-05 13:32:52,14.98332838,0.0003009,69.9991,318.8372,271.0897,88.9917,-4.5353e-06,-1.47e-06,0.0,0 STARLINK-5594,1 55742U 23028B   23278.56449102 -.00000147  00000-0 -45353-5 0  9990,2 55742  69.9991 318.8372 0003009 271.0897  88.9917 14.98332838 33306,6950.184,96.107,574.14,569.958,0.0
55742.0,STARLINK-5594,PAYLOAD,2023-10-05 19:57:24,14.98337098,0.0003148,69.9988,318.1639,272.1135,87.9664,-0.00012254,-1.555e-05,0.0,0 STARLINK-5594,1 55742U 23028B   23278.83153015 -.00001555  00000-0 -12254-3 0  9991,2 55742  69.9988 318.1639 0003148 272.1135  87.9664 14.98337098 33347,6950.171,96.107,574.224,569.848,0.0
55742.0,STARLINK-5594,PAYLOAD,2023-10-06 10:22:37,14.98326898,0.0002971,69.9989,316.6495,266.9076,93.1743,-1.1684e-06,-1.07e-06,0.0,0 STARLINK-5594,1 55742U 23028B   23279.43237478 -.00000107  00000-0 -11684-5 0  9994,2 55742  69.9989 316.6495 0002971 266.9076  93.1743 14.98326898 33432,6950.202,96.107,574.132,570.003,0.0
55742.0,STARLINK-5594,PAYLOAD,2023-10-06 11:58:45,14.98330012,0.0003187,69.9982,316.4803,269.0329,91.0465,1.2296e-05,5.4e-07,0.0,0 STARLINK-5594,1 55742U 23028B   23279.49913224  .00000054  00000-0  12296-4 0  9998,2 55742  69.9982 316.4803 0003187 269.0329  91.0465 14.98330012 33443,6950.193,96.107,574.273,569.843,0.0
55742.0,STARLINK-5594,PAYLOAD,2023-10-06 19:59:25,14.9832591,0.000327,69.9981,315.6378,265.5864,94.4921,2.5206e-05,2.08e-06,0.0,0 STARLINK-5594,1 55742U 23028B   23279.83293417  .00000208  00000-0  25206-4 0  9997,2 55742  69.9981 315.6378 0003270 265.5864  94.4921 14.98325910 33498,6950.206,96.107,574.343,569.798,0.0
55742.0,STARLINK-5594,PAYLOAD,2023-10-07 10:24:37,14.98330669,0.000301,69.9985,314.1238,272.0019,88.0795,5.5205e-05,5.66e-06,0.0,0 STARLINK-5594,1 55742U 23028B   23280.43377231  .00000566  00000-0  55205-4 0  9991,2 55742  69.9985 314.1238 0003010 272.0019  88.0795 14.98330669 33583,6950.191,96.107,574.148,569.964,0.0
55742.0,STARLINK-5594,PAYLOAD,2023-10-07 12:00:45,14.98347138,0.0003273,69.998,313.9549,269.8423,90.2361,-0.0001971,-2.445e-05,0.0,0 STARLINK-5594,1 55742U 23028B   23280.50052654 -.00002445  00000-0 -19710-3 0  9998,2 55742  69.9980 313.9549 0003273 269.8423  90.2361 14.98347138 33598,6950.14,96.106,574.28,569.73,0.0
55742.0,STARLINK-5594,PAYLOAD,2023-10-08 02:25:58,14.98326743,0.0003098,69.998,312.4403,271.53,88.5504,6.7584e-05,7.13e-06,0.0,0 STARLINK-5594,1 55742U 23028B   23281.10137421  .00000713  00000-0  67584-4 0  9998,2 55742  69.9980 312.4403 0003098 271.5300  88.5504 14.98326743 33688,6950.203,96.107,574.221,569.915,0.0
55742.0,STARLINK-5594,PAYLOAD,2023-10-08 10:26:40,14.98311063,0.0003313,69.998,311.5977,271.3289,88.749,-0.00014396,-1.81e-05,0.0,0 STARLINK-5594,1 55742U 23028B   23281.43519155 -.00001810  00000-0 -14396-3 0  9995,2 55742  69.9980 311.5977 0003313 271.3289  88.7490 14.98311063 33739,6950.251,96.108,574.419,569.814,0.0
55742.0,STARLINK-5594,PAYLOAD,2023-10-08 12:02:48,14.98311472,0.0003359,69.9978,311.4291,271.6501,88.4273,-0.00015074,-1.89e-05,0.0,0 STARLINK-5594,1 55742U 23028B   23281.50195220 -.00001890  00000-0 -15074-3 0  9998,2 55742  69.9978 311.4291 0003359 271.6501  88.4273 14.98311472 33745,6950.25,96.108,574.45,569.781,0.0
55742.0,STARLINK-5594,PAYLOAD,2023-10-08 20:03:29,14.98316439,0.0003184,69.9981,310.5885,274.0605,86.019,-0.0001303,-1.647e-05,0.0,0 STARLINK-5594,1 55742U 23028B   23281.83575347 -.00001647  00000-0 -13030-3 0  9996,2 55742  69.9981 310.5885 0003184 274.0605  86.0190 14.98316439 33791,6950.235,96.108,574.313,569.887,0.0
55742.0,STARLINK-5594,PAYLOAD,2023-10-09 02:28:01,14.98319158,0.0003312,69.9979,309.9148,271.5976,88.4804,-7.2697e-05,-9.6e-06,0.0,0 STARLINK-5594,1 55742U 23028B   23282.10279197 -.00000960  00000-0 -72697-4 0  9993,2 55742  69.9979 309.9148 0003312 271.5976  88.4804 14.98319158 33832,6950.226,96.108,574.393,569.79,0.0
55742.0,STARLINK-5594,PAYLOAD,2023-10-09 08:52:33,14.98323987,0.000329,69.9979,309.2414,272.6128,87.4655,-1.2676e-06,-1.08e-06,0.0,0 STARLINK-5594,1 55742U 23028B   23282.36982794 -.00000108  00000-0 -12676-5 0  9991,2 55742  69.9979 309.2414 0003290 272.6128  87.4655 14.98323987 33879,6950.211,96.107,574.363,569.79,0.0
55742.0,STARLINK-5594,PAYLOAD,2023-10-09 12:04:49,14.98326991,0.0003254,69.998,308.9046,271.5927,88.4859,-2.444e-06,-1.22e-06,0.0,0 STARLINK-5594,1 55742U 23028B   23282.50334664 -.00000122  00000-0 -24440-5 0  9992,2 55742  69.9980 308.9046 0003254 271.5927  88.4859 14.98326991 33890,6950.202,96.107,574.329,569.806,0.0
55742.0,STARLINK-5594,PAYLOAD,2023-10-10 02:30:01,14.98325282,0.000344,69.9977,307.3895,271.3582,88.7183,0.00027968,3.245e-05,0.0,0 STARLINK-5594,1 55742U 23028B   23283.10418033  .00003245  00000-0  27968-3 0  9995,2 55742  69.9977 307.3895 0003440 271.3582  88.7183 14.98325282 33988,6950.207,96.107,574.463,569.682,0.0
